IRIDIUM 155             
1 43573U 18061E   25253.82771309  .00000251  00000+0  82717-4 0  9998
2 43573  86.4042 173.4264 0002379  87.3114 272.8354 14.34219061373319
IRIDIUM 154             
1 43574U 18061F   25253.80868261  .00000218  00000+0  70916-4 0  9992
2 43574  86.4046 173.5537 0002236  82.3549 277.7901 14.34221170373368
IRIDIUM 163             
1 43575U 18061G   25253.71989055  .00000071  00000+0  18356-4 0  9995
2 43575  86.4043 173.5151 0002072  87.2318 272.9115 14.34217686373321
IRIDIUM 156             
1 43576U 18061H   25253.83405787  .00000144  00000+0  44279-4 0  9998
2 43576  86.4045 173.4745 0002484  86.9442 273.2038 14.34217958373334
IRIDIUM 164             
1 43577U 18061J   25253.81502948  .00000082  00000+0  22178-4 0  9999
2 43577  86.4044 173.5182 0002317  79.4365 280.7092 14.34217960373376
IRIDIUM 159             
1 43578U 18061K   25253.85309408  .00000260  00000+0  85689-4 0  9994
2 43578  86.4044 173.4451 0002062  81.3502 278.7927 14.34211484373343
IRIDIUM 180             
1 43922U 19002A   25253.85258003  .00000189  00000+0  60583-4 0  9993
2 43922  86.3936 110.3979 0002016  88.7693 271.3733 14.34217780348959
IRIDIUM 176             
1 43923U 19002B   25253.67578816  .00000735  00000+0  11265-3 0  9990
2 43923  86.6060 110.4561 0002829  96.9024 263.2515 14.72254142358123
IRIDIUM 168             
1 43924U 19002C   25253.84623794  .00000233  00000+0  75992-4 0  9997
2 43924  86.3939 110.4701 0002121  87.7962 272.3476 14.34217306348930
IRIDIUM 173             
1 43925U 19002D   25253.83355199  .00000199  00000+0  64158-4 0  9991
2 43925  86.3935 110.3757 0002075  92.2565 267.8869 14.34218610348917
IRIDIUM 169             
1 43926U 19002E   25253.70760179  .00000278  00000+0  84344-4 0  9993
2 43926  86.4264 142.0476 0002906 108.4620 251.6894 14.38609366350041
IRIDIUM 172             
1 43927U 19002F   25253.61790450  .00000213  00000+0  69164-4 0  9991
2 43927  86.3935 110.4729 0001830  86.4088 273.7317 14.34218193348899
IRIDIUM 175             
1 43928U 19002G   25253.73886615  .00000335  00000+0  49196-4 0  9992
2 43928  86.1466  58.0526 0003090  82.6666 277.4902 14.72241709358128
IRIDIUM 171             
1 43929U 19002H   25253.66864432 -.00000037  00000+0 -20378-4 0  9990
2 43929  86.3946 110.7269 0002288  81.9053 278.2402 14.34216412348892
IRIDIUM 170             
1 43930U 19002J   25253.68196945  .00000744  00000+0  11416-3 0  9996
2 43930  86.6060 110.4576 0002458  86.0968 274.0531 14.72251645358136
IRIDIUM 167             
1 43931U 19002K   25253.73207226  .00000193  00000+0  61747-4 0  9999
2 43931  86.3938 110.4453 0002580  86.4853 273.6638 14.34218002348900
IRIDIUM 181             
1 56726U 23068S   25253.70901056  .00000360  00000+0  10093-3 0  9994
2 56726  86.4582 173.5508 0002496  71.1236 289.0236 14.43309983122123
IRIDIUM 177             
1 56727U 23068T   25253.65474018  .00000912  00000+0  11655-3 0  9990
2 56727  86.1925 101.5588 0002522  82.5958 277.5550 14.80225783125016
IRIDIUM 174             
1 56728U 23068U   25253.66959456  .00000824  00000+0  12686-3 0  9993
2 56728  86.6071 110.5821 0002018  94.0938 266.0510 14.72242852124891
IRIDIUM 178             
1 56729U 23068V   25253.44105268  .00001109  00000+0  14253-3 0  9993
2 56729  86.6582 142.2793 0002518  88.3519 271.7991 14.80219881124986
IRIDIUM 179             
1 56730U 23068W   25253.43568871  .00001199  00000+0  15437-3 0  9991
2 56730  86.6841 150.4108 0002914  86.6134 273.5421 14.80222134124984
